[{"OBJECT_NAME":"QIANFAN-71","OBJECT_ID":"2025-016S","EPOCH":"2026-03-09T21:11:40.299648","MEAN_MOTION":13.50996794,"ECCENTRICITY":0.00179065,"INCLINATION":88.9678,"RA_OF_ASC_NODE":94.0594,"ARG_OF_PERICENTER":96.7251,"MEAN_ANOMALY":263.5939,"EPHEMERIS_TYPE":0,"CLASSIFICATION_TYPE":"U","NORAD_CAT_ID":62801,"ELEMENT_SET_NO":999,"REV_AT_EPOCH":5900,"BSTAR":3.9490459e-5,"MEAN_MOTION_DOT":3.8e-7,"MEAN_MOTION_DDOT":0},{"OBJECT_NAME":"COSMOS 970 DEB","OBJECT_ID":"1977-121K","EPOCH":"2026-03-09T21:18:46.436544","MEAN_MOTION":13.65494426,"ECCENTRICITY":0.01958199,"INCLINATION":65.7673,"RA_OF_ASC_NODE":262.7209,"ARG_OF_PERICENTER":158.1047,"MEAN_ANOMALY":202.8526,"EPHEMERIS_TYPE":0,"CLASSIFICATION_TYPE":"U","NORAD_CAT_ID":10568,"ELEMENT_SET_NO":999,"REV_AT_EPOCH":39338,"BSTAR":0.00053092288,"MEAN_MOTION_DOT":4.15e-6,"MEAN_MOTION_DDOT":0}]
